{
  "norad_id": 67564,
  "name": "STARLINK-36593",
  "history": [
    {
      "epoch": "2026-03-28T22:10:44.062176Z",
      "apogee_km": 420.45329488033894,
      "perigee_km": 417.6528525699641,
      "latitude_deg": 5.661574278634621e-06,
      "longitude_deg": -10.080984365581205,
      "height_km": 421.89052702632455,
      "semi_major_axis_km": 6797.190073725152,
      "eccentricity": 0.000206,
      "inclination_deg": 97.2858,
      "raan_deg": 148.9402,
      "arg_perigee_deg": 77.9424,
      "mean_anomaly_deg": 282.2058,
      "mean_motion_rev_day": 15.49204109
    },
    {
      "epoch": "2026-03-29T02:49:46.084800Z",
      "apogee_km": 420.0887755644526,
      "perigee_km": 417.8987400342894,
      "latitude_deg": 5.4362202309633746e-05,
      "longitude_deg": -79.8370099121053,
      "height_km": 422.33408967545364,
      "semi_major_axis_km": 6797.130757799371,
      "eccentricity": 0.0001611,
      "inclination_deg": 97.2826,
      "raan_deg": 149.1336,
      "arg_perigee_deg": 101.0249,
      "mean_anomaly_deg": 259.1184,
      "mean_motion_rev_day": 15.49224388
    }
  ]
}